<?xml version="1.0" encoding="UTF-8"?>
<ndm xmlns:xsi="http://www.w3.org/2001/XMLSchema-instance" xsi:noNamespaceSchemaLocation="https://sanaregistry.org/r/ndmxml_unqualified/ndmxml-2.0.0-master-2.0.xsd">
<omm id="CCSDS_OMM_VERS" version="2.0">
<header><CREATION_DATE/><ORIGINATOR/></header><body><segment><metadata><OBJECT_NAME>ORBCOMM FM20 [+]</OBJECT_NAME><OBJECT_ID>1998-046D</OBJECT_ID><CENTER_NAME>EARTH</CENTER_NAME><REF_FRAME>TEME</REF_FRAME><TIME_SYSTEM>UTC</TIME_SYSTEM><MEAN_ELEMENT_THEORY>SGP4</MEAN_ELEMENT_THEORY></metadata><data><meanElements><EPOCH>2023-10-06T13:26:16.960992</EPOCH><MEAN_MOTION>14.34456037</MEAN_MOTION><ECCENTRICITY>.0002209</ECCENTRICITY><INCLINATION>44.9934</INCLINATION><RA_OF_ASC_NODE>228.7492</RA_OF_ASC_NODE><ARG_OF_PERICENTER>316.2615</ARG_OF_PERICENTER><MEAN_ANOMALY>43.8056</MEAN_ANOMALY></meanElements><tleParameters><EPHEMERIS_TYPE>0</EPHEMERIS_TYPE><CLASSIFICATION_TYPE>U</CLASSIFICATION_TYPE><NORAD_CAT_ID>25416</NORAD_CAT_ID><ELEMENT_SET_NO>999</ELEMENT_SET_NO><REV_AT_EPOCH>31525</REV_AT_EPOCH><BSTAR>.94145E-3</BSTAR><MEAN_MOTION_DOT>.2536E-4</MEAN_MOTION_DOT><MEAN_MOTION_DDOT>0</MEAN_MOTION_DDOT></tleParameters></data></segment></body></omm>
<omm id="CCSDS_OMM_VERS" version="2.0">
<header><CREATION_DATE/><ORIGINATOR/></header><body><segment><metadata><OBJECT_NAME>ORBCOMM FM16 [-]</OBJECT_NAME><OBJECT_ID>1998-046E</OBJECT_ID><CENTER_NAME>EARTH</CENTER_NAME><REF_FRAME>TEME</REF_FRAME><TIME_SYSTEM>UTC</TIME_SYSTEM><MEAN_ELEMENT_THEORY>SGP4</MEAN_ELEMENT_THEORY></metadata><data><meanElements><EPOCH>2023-10-06T22:08:53.050272</EPOCH><MEAN_MOTION>14.35149001</MEAN_MOTION><ECCENTRICITY>.0003614</ECCENTRICITY><INCLINATION>44.9933</INCLINATION><RA_OF_ASC_NODE>224.1908</RA_OF_ASC_NODE><ARG_OF_PERICENTER>35.2659</ARG_OF_PERICENTER><MEAN_ANOMALY>324.8426</MEAN_ANOMALY></meanElements><tleParameters><EPHEMERIS_TYPE>0</EPHEMERIS_TYPE><CLASSIFICATION_TYPE>U</CLASSIFICATION_TYPE><NORAD_CAT_ID>25417</NORAD_CAT_ID><ELEMENT_SET_NO>999</ELEMENT_SET_NO><REV_AT_EPOCH>31518</REV_AT_EPOCH><BSTAR>.12172E-2</BSTAR><MEAN_MOTION_DOT>.3369E-4</MEAN_MOTION_DOT><MEAN_MOTION_DDOT>0</MEAN_MOTION_DDOT></tleParameters></data></segment></body></omm>
<omm id="CCSDS_OMM_VERS" version="2.0">
<header><CREATION_DATE/><ORIGINATOR/></header><body><segment><metadata><OBJECT_NAME>ORBCOMM FM15 [-]</OBJECT_NAME><OBJECT_ID>1998-046F</OBJECT_ID><CENTER_NAME>EARTH</CENTER_NAME><REF_FRAME>TEME</REF_FRAME><TIME_SYSTEM>UTC</TIME_SYSTEM><MEAN_ELEMENT_THEORY>SGP4</MEAN_ELEMENT_THEORY></metadata><data><meanElements><EPOCH>2023-10-06T13:29:43.968480</EPOCH><MEAN_MOTION>14.34908840</MEAN_MOTION><ECCENTRICITY>.0003072</ECCENTRICITY><INCLINATION>44.9968</INCLINATION><RA_OF_ASC_NODE>229.4720</RA_OF_ASC_NODE><ARG_OF_PERICENTER>30.5666</ARG_OF_PERICENTER><MEAN_ANOMALY>329.5359</MEAN_ANOMALY></meanElements><tleParameters><EPHEMERIS_TYPE>0</EPHEMERIS_TYPE><CLASSIFICATION_TYPE>U</CLASSIFICATION_TYPE><NORAD_CAT_ID>25418</NORAD_CAT_ID><ELEMENT_SET_NO>999</ELEMENT_SET_NO><REV_AT_EPOCH>31514</REV_AT_EPOCH><BSTAR>.11737E-2</BSTAR><MEAN_MOTION_DOT>.3227E-4</MEAN_MOTION_DOT><MEAN_MOTION_DDOT>0</MEAN_MOTION_DDOT></tleParameters></data></segment></body></omm>
<omm id="CCSDS_OMM_VERS" version="2.0">
<header><CREATION_DATE/><ORIGINATOR/></header><body><segment><metadata><OBJECT_NAME>ORBCOMM FM14 [-]</OBJECT_NAME><OBJECT_ID>1998-046G</OBJECT_ID><CENTER_NAME>EARTH</CENTER_NAME><REF_FRAME>TEME</REF_FRAME><TIME_SYSTEM>UTC</TIME_SYSTEM><MEAN_ELEMENT_THEORY>SGP4</MEAN_ELEMENT_THEORY></metadata><data><meanElements><EPOCH>2023-10-06T21:43:26.987808</EPOCH><MEAN_MOTION>14.35017773</MEAN_MOTION><ECCENTRICITY>.0002716</ECCENTRICITY><INCLINATION>44.9956</INCLINATION><RA_OF_ASC_NODE>227.2069</RA_OF_ASC_NODE><ARG_OF_PERICENTER>7.6824</ARG_OF_PERICENTER><MEAN_ANOMALY>92.9532</MEAN_ANOMALY></meanElements><tleParameters><EPHEMERIS_TYPE>0</EPHEMERIS_TYPE><CLASSIFICATION_TYPE>U</CLASSIFICATION_TYPE><NORAD_CAT_ID>25419</NORAD_CAT_ID><ELEMENT_SET_NO>999</ELEMENT_SET_NO><REV_AT_EPOCH>31514</REV_AT_EPOCH><BSTAR>.1294E-2</BSTAR><MEAN_MOTION_DOT>.3581E-4</MEAN_MOTION_DOT><MEAN_MOTION_DDOT>0</MEAN_MOTION_DDOT></tleParameters></data></segment></body></omm>
<omm id="CCSDS_OMM_VERS" version="2.0">
<header><CREATION_DATE/><ORIGINATOR/></header><body><segment><metadata><OBJECT_NAME>ORBCOMM FM13 [+]</OBJECT_NAME><OBJECT_ID>1998-046H</OBJECT_ID><CENTER_NAME>EARTH</CENTER_NAME><REF_FRAME>TEME</REF_FRAME><TIME_SYSTEM>UTC</TIME_SYSTEM><MEAN_ELEMENT_THEORY>SGP4</MEAN_ELEMENT_THEORY></metadata><data><meanElements><EPOCH>2023-10-06T21:45:44.847648</EPOCH><MEAN_MOTION>14.34483682</MEAN_MOTION><ECCENTRICITY>.0004515</ECCENTRICITY><INCLINATION>44.9968</INCLINATION><RA_OF_ASC_NODE>231.0141</RA_OF_ASC_NODE><ARG_OF_PERICENTER>25.3752</ARG_OF_PERICENTER><MEAN_ANOMALY>334.7316</MEAN_ANOMALY></meanElements><tleParameters><EPHEMERIS_TYPE>0</EPHEMERIS_TYPE><CLASSIFICATION_TYPE>U</CLASSIFICATION_TYPE><NORAD_CAT_ID>25420</NORAD_CAT_ID><ELEMENT_SET_NO>999</ELEMENT_SET_NO><REV_AT_EPOCH>31422</REV_AT_EPOCH><BSTAR>.1104E-2</BSTAR><MEAN_MOTION_DOT>.3001E-4</MEAN_MOTION_DOT><MEAN_MOTION_DDOT>0</MEAN_MOTION_DDOT></tleParameters></data></segment></body></omm>
<omm id="CCSDS_OMM_VERS" version="2.0">
<header><CREATION_DATE/><ORIGINATOR/></header><body><segment><metadata><OBJECT_NAME>ORBCOMM FM21 [-]</OBJECT_NAME><OBJECT_ID>1998-053A</OBJECT_ID><CENTER_NAME>EARTH</CENTER_NAME><REF_FRAME>TEME</REF_FRAME><TIME_SYSTEM>UTC</TIME_SYSTEM><MEAN_ELEMENT_THEORY>SGP4</MEAN_ELEMENT_THEORY></metadata><data><meanElements><EPOCH>2023-10-06T18:50:49.519104</EPOCH><MEAN_MOTION>14.34506037</MEAN_MOTION><ECCENTRICITY>.000218</ECCENTRICITY><INCLINATION>45.0091</INCLINATION><RA_OF_ASC_NODE>315.6863</RA_OF_ASC_NODE><ARG_OF_PERICENTER>273.1446</ARG_OF_PERICENTER><MEAN_ANOMALY>86.9152</MEAN_ANOMALY></meanElements><tleParameters><EPHEMERIS_TYPE>0</EPHEMERIS_TYPE><CLASSIFICATION_TYPE>U</CLASSIFICATION_TYPE><NORAD_CAT_ID>25475</NORAD_CAT_ID><ELEMENT_SET_NO>999</ELEMENT_SET_NO><REV_AT_EPOCH>30822</REV_AT_EPOCH><BSTAR>.94232E-3</BSTAR><MEAN_MOTION_DOT>.2541E-4</MEAN_MOTION_DOT><MEAN_MOTION_DDOT>0</MEAN_MOTION_DDOT></tleParameters></data></segment></body></omm>
<omm id="CCSDS_OMM_VERS" version="2.0">
<header><CREATION_DATE/><ORIGINATOR/></header><body><segment><metadata><OBJECT_NAME>ORBCOMM FM22 [-]</OBJECT_NAME><OBJECT_ID>1998-053B</OBJECT_ID><CENTER_NAME>EARTH</CENTER_NAME><REF_FRAME>TEME</REF_FRAME><TIME_SYSTEM>UTC</TIME_SYSTEM><MEAN_ELEMENT_THEORY>SGP4</MEAN_ELEMENT_THEORY></metadata><data><meanElements><EPOCH>2023-10-06T19:54:01.232352</EPOCH><MEAN_MOTION>14.34863799</MEAN_MOTION><ECCENTRICITY>.0003036</ECCENTRICITY><INCLINATION>45.0087</INCLINATION><RA_OF_ASC_NODE>313.5021</RA_OF_ASC_NODE><ARG_OF_PERICENTER>307.7023</ARG_OF_PERICENTER><MEAN_ANOMALY>52.3548</MEAN_ANOMALY></meanElements><tleParameters><EPHEMERIS_TYPE>0</EPHEMERIS_TYPE><CLASSIFICATION_TYPE>U</CLASSIFICATION_TYPE><NORAD_CAT_ID>25476</NORAD_CAT_ID><ELEMENT_SET_NO>999</ELEMENT_SET_NO><REV_AT_EPOCH>30821</REV_AT_EPOCH><BSTAR>.94743E-3</BSTAR><MEAN_MOTION_DOT>.2575E-4</MEAN_MOTION_DOT><MEAN_MOTION_DDOT>0</MEAN_MOTION_DDOT></tleParameters></data></segment></body></omm>
<omm id="CCSDS_OMM_VERS" version="2.0">
<header><CREATION_DATE/><ORIGINATOR/></header><body><segment><metadata><OBJECT_NAME>ORBCOMM FM23 [-]</OBJECT_NAME><OBJECT_ID>1998-053C</OBJECT_ID><CENTER_NAME>EARTH</CENTER_NAME><REF_FRAME>TEME</REF_FRAME><TIME_SYSTEM>UTC</TIME_SYSTEM><MEAN_ELEMENT_THEORY>SGP4</MEAN_ELEMENT_THEORY></metadata><data><meanElements><EPOCH>2023-10-06T14:32:30.827904</EPOCH><MEAN_MOTION>14.34479834</MEAN_MOTION><ECCENTRICITY>.0002597</ECCENTRICITY><INCLINATION>45.0094</INCLINATION><RA_OF_ASC_NODE>318.9718</RA_OF_ASC_NODE><ARG_OF_PERICENTER>294.3629</ARG_OF_PERICENTER><MEAN_ANOMALY>65.6946</MEAN_ANOMALY></meanElements><tleParameters><EPHEMERIS_TYPE>0</EPHEMERIS_TYPE><CLASSIFICATION_TYPE>U</CLASSIFICATION_TYPE><NORAD_CAT_ID>25477</NORAD_CAT_ID><ELEMENT_SET_NO>999</ELEMENT_SET_NO><REV_AT_EPOCH>30834</REV_AT_EPOCH><BSTAR>.87826E-3</BSTAR><MEAN_MOTION_DOT>.2357E-4</MEAN_MOTION_DOT><MEAN_MOTION_DDOT>0</MEAN_MOTION_DDOT></tleParameters></data></segment></body></omm>

</ndm>
