ORBCOMM FM20 [+]        
1 25416U 98046D   23279.55991853  .00002536  00000+0  94145-3 0  9994
2 25416  44.9934 228.7492 0002209 316.2615  43.8056 14.34456037315253
ORBCOMM FM16 [-]        
1 25417U 98046E   23279.92283623  .00003369  00000+0  12172-2 0  9999
2 25417  44.9933 224.1908 0003614  35.2659 324.8426 14.35149001315188
ORBCOMM FM15 [-]        
1 25418U 98046F   23279.56231445  .00003227  00000+0  11737-2 0  9994
2 25418  44.9968 229.4720 0003072  30.5666 329.5359 14.34908840315147
ORBCOMM FM14 [-]        
1 25419U 98046G   23279.90517347  .00003581  00000+0  12940-2 0  9991
2 25419  44.9956 227.2069 0002716   7.6824  92.9532 14.35017773315143
ORBCOMM FM13 [+]        
1 25420U 98046H   23279.90676907  .00003001  00000+0  11040-2 0  9998
2 25420  44.9968 231.0141 0004515  25.3752 334.7316 14.34483682314228
ORBCOMM FM21 [-]        
1 25475U 98053A   23279.78529536  .00002541  00000+0  94232-3 0  9990
2 25475  45.0091 315.6863 0002180 273.1446  86.9152 14.34506037308223
ORBCOMM FM22 [-]        
1 25476U 98053B   23279.82918093  .00002575  00000+0  94743-3 0  9990
2 25476  45.0087 313.5021 0003036 307.7023  52.3548 14.34863799308214
ORBCOMM FM23 [-]        
1 25477U 98053C   23279.60591236  .00002357  00000+0  87826-3 0  9995
2 25477  45.0094 318.9718 0002597 294.3629  65.6946 14.34479834308345
